{
  "norad_id": 65623,
  "name": "STARLINK-35239",
  "history": [
    {
      "epoch": "2026-04-15T01:28:03.170784Z",
      "apogee_km": 476.0651165481795,
      "perigee_km": 474.3531506840018,
      "latitude_deg": -9.722489740735771e-06,
      "longitude_deg": -87.38334587979355,
      "height_km": 476.023381159981,
      "semi_major_axis_km": 6853.34613361609,
      "eccentricity": 0.0001249,
      "inclination_deg": 53.1587,
      "raan_deg": 137.8585,
      "arg_perigee_deg": 84.3866,
      "mean_anomaly_deg": 275.7277,
      "mean_motion_rev_day": 15.30201988
    },
    {
      "epoch": "2026-04-16T18:13:26.329728Z",
      "apogee_km": 476.0204517260745,
      "perigee_km": 474.41539600290616,
      "latitude_deg": 3.335440065102379e-05,
      "longitude_deg": 11.708086704020866,
      "height_km": 476.065180605623,
      "semi_major_axis_km": 6853.35492386449,
      "eccentricity": 0.0001171,
      "inclination_deg": 53.1569,
      "raan_deg": 129.9702,
      "arg_perigee_deg": 86.3837,
      "mean_anomaly_deg": 273.7298,
      "mean_motion_rev_day": 15.30199044
    },
    {
      "epoch": "2026-04-17T17:44:13.906176Z",
      "apogee_km": 475.6970408502257,
      "perigee_km": 474.6334083449674,
      "latitude_deg": 1.1916773243723456e-05,
      "longitude_deg": 13.49138338582731,
      "height_km": 475.76222775245634,
      "semi_major_axis_km": 6853.302224597596,
      "eccentricity": 7.76e-05,
      "inclination_deg": 53.1564,
      "raan_deg": 125.4174,
      "arg_perigee_deg": 55.4596,
      "mean_anomaly_deg": 304.6478,
      "mean_motion_rev_day": 15.30216694
    },
    {
      "epoch": "2026-04-18T04:42:36.422496Z",
      "apogee_km": 475.8137318722056,
      "perigee_km": 474.58684743061167,
      "latitude_deg": -1.885915725729436e-05,
      "longitude_deg": -153.67689910702285,
      "height_km": 475.8229408384678,
      "semi_major_axis_km": 6853.337289651408,
      "eccentricity": 8.951e-05,
      "inclination_deg": 53.1563,
      "raan_deg": 123.2936,
      "arg_perigee_deg": 63.2964,
      "mean_anomaly_deg": 296.8128,
      "mean_motion_rev_day": 15.3020495
    },
    {
      "epoch": "2026-04-19T07:21:30.695328Z",
      "apogee_km": 475.9342322512557,
      "perigee_km": 474.30315739588787,
      "latitude_deg": 1.6634103958455601e-06,
      "longitude_deg": 160.34336771863863,
      "height_km": 476.0429882103001,
      "semi_major_axis_km": 6853.2556948235715,
      "eccentricity": 0.000119,
      "inclination_deg": 53.1559,
      "raan_deg": 118.1344,
      "arg_perigee_deg": 91.8647,
      "mean_anomaly_deg": 268.249,
      "mean_motion_rev_day": 15.30232278
    },
    {
      "epoch": "2026-04-20T13:08:31.801056Z",
      "apogee_km": 476.08096145212676,
      "perigee_km": 474.366387678564,
      "latitude_deg": -5.407246190858793e-06,
      "longitude_deg": 66.6041825164707,
      "height_km": 476.02263729964614,
      "semi_major_axis_km": 6853.360674565345,
      "eccentricity": 0.00012509,
      "inclination_deg": 53.1594,
      "raan_deg": 112.373,
      "arg_perigee_deg": 83.3628,
      "mean_anomaly_deg": 276.7515,
      "mean_motion_rev_day": 15.30197118
    },
    {
      "epoch": "2026-04-21T06:23:07.031904Z",
      "apogee_km": 476.05351813617926,
      "perigee_km": 474.3607421360357,
      "latitude_deg": 6.255991538936957e-06,
      "longitude_deg": 163.91164454656516,
      "height_km": 476.16533972955034,
      "semi_major_axis_km": 6853.344130136107,
      "eccentricity": 0.0001235,
      "inclination_deg": 53.1615,
      "raan_deg": 109.0354,
      "arg_perigee_deg": 94.0598,
      "mean_anomaly_deg": 266.0544,
      "mean_motion_rev_day": 15.30202659
    },
    {
      "epoch": "2026-04-22T16:52:17.600736Z",
      "apogee_km": 476.2671651753444,
      "perigee_km": 474.0371048908055,
      "latitude_deg": -7.020144459745537e-05,
      "longitude_deg": -1.472653592451632,
      "height_km": 475.9875605265001,
      "semi_major_axis_km": 6853.289135033075,
      "eccentricity": 0.0001627,
      "inclination_deg": 53.1607,
      "raan_deg": 102.3615,
      "arg_perigee_deg": 86.7996,
      "mean_anomaly_deg": 273.319,
      "mean_motion_rev_day": 15.30221078
    },
    {
      "epoch": "2026-04-23T10:06:52.334784Z",
      "apogee_km": 476.1388260802314,
      "perigee_km": 474.2249682450092,
      "latitude_deg": 2.1880229607991607e-05,
      "longitude_deg": 95.83794424500174,
      "height_km": 476.0953945686704,
      "semi_major_axis_km": 6853.31889716262,
      "eccentricity": 0.00013963,
      "inclination_deg": 53.1612,
      "raan_deg": 99.0249,
      "arg_perigee_deg": 90.9261,
      "mean_anomaly_deg": 269.19,
      "mean_motion_rev_day": 15.3021111
    },
    {
      "epoch": "2026-04-24T06:29:33.684000Z",
      "apogee_km": 475.89526748027765,
      "perigee_km": 474.4958169751535,
      "latitude_deg": 9.90709084315082e-06,
      "longitude_deg": 145.38424466561824,
      "height_km": 476.4467992304494,
      "semi_major_axis_km": 6853.332542227715,
      "eccentricity": 0.0001021,
      "inclination_deg": 53.1605,
      "raan_deg": 95.0804,
      "arg_perigee_deg": 120.2603,
      "mean_anomaly_deg": 239.8499,
      "mean_motion_rev_day": 15.3020654
    },
    {
      "epoch": "2026-04-25T07:34:16.927680Z",
      "apogee_km": 474.5659463734228,
      "perigee_km": 473.1503241784749,
      "latitude_deg": 2.4942916184994057e-05,
      "longitude_deg": 123.31942845074245,
      "height_km": 475.3823102611451,
      "semi_major_axis_km": 6851.995135275949,
      "eccentricity": 0.0001033,
      "inclination_deg": 53.1605,
      "raan_deg": 90.2257,
      "arg_perigee_deg": 151.9811,
      "mean_anomaly_deg": 208.1246,
      "mean_motion_rev_day": 15.30654572
    },
    {
      "epoch": "2026-04-25T07:34:16.928544Z",
      "apogee_km": 474.5656037736662,
      "perigee_km": 473.15066677823233,
      "latitude_deg": 2.7116196943701787e-05,
      "longitude_deg": 123.31942646004305,
      "height_km": 475.3820078215455,
      "semi_major_axis_km": 6851.995135275949,
      "eccentricity": 0.00010325,
      "inclination_deg": 53.1605,
      "raan_deg": 90.2257,
      "arg_perigee_deg": 151.9811,
      "mean_anomaly_deg": 208.1246,
      "mean_motion_rev_day": 15.30654572
    },
    {
      "epoch": "2026-04-27T20:33:25.176096Z",
      "apogee_km": 463.5470507870732,
      "perigee_km": 461.8217956241406,
      "latitude_deg": -6.128115325867352e-05,
      "longitude_deg": -85.83899357560865,
      "height_km": 463.29768694113903,
      "semi_major_axis_km": 6840.821423205607,
      "eccentricity": 0.0001261,
      "inclination_deg": 53.1585,
      "raan_deg": 78.3563,
      "arg_perigee_deg": 70.6082,
      "mean_anomaly_deg": 289.5056,
      "mean_motion_rev_day": 15.34406331
    },
    {
      "epoch": "2026-04-28T20:00:01.000224Z",
      "apogee_km": 463.59182678821344,
      "perigee_km": 462.00472980364793,
      "latitude_deg": -1.062372506050717,
      "longitude_deg": -83.80965148307175,
      "height_km": 463.9162814872106,
      "semi_major_axis_km": 6840.93527829593,
      "eccentricity": 0.000116,
      "inclination_deg": 53.1588,
      "raan_deg": 73.7893,
      "arg_perigee_deg": 94.0511,
      "mean_anomaly_deg": 264.743,
      "mean_motion_rev_day": 15.34368025
    },
    {
      "epoch": "2026-04-29T20:00:01.999008Z",
      "apogee_km": 463.6490863629724,
      "perigee_km": 461.9224374578671,
      "latitude_deg": 40.63435442709164,
      "longitude_deg": 51.57312310443563,
      "height_km": 465.7158479063497,
      "semi_major_axis_km": 6840.9227619104195,
      "eccentricity": 0.0001262,
      "inclination_deg": 53.1593,
      "raan_deg": 69.1147,
      "arg_perigee_deg": 102.4943,
      "mean_anomaly_deg": 23.2521,
      "mean_motion_rev_day": 15.34372236
    },
    {
      "epoch": "2026-04-30T14:00:01.999872Z",
      "apogee_km": 463.593788678636,
      "perigee_km": 461.9113402991452,
      "latitude_deg": -37.41558531017675,
      "longitude_deg": -37.673407196705455,
      "height_km": 475.5453664353458,
      "semi_major_axis_km": 6840.88956448889,
      "eccentricity": 0.00012297,
      "inclination_deg": 53.1601,
      "raan_deg": 65.6095,
      "arg_perigee_deg": 95.5805,
      "mean_anomaly_deg": 215.3506,
      "mean_motion_rev_day": 15.34383405
    },
    {
      "epoch": "2026-05-02T02:10:09.156000Z",
      "apogee_km": 463.6433292771426,
      "perigee_km": 461.62530173906725,
      "latitude_deg": -1.7066031843155295e-05,
      "longitude_deg": 166.0127233841818,
      "height_km": 463.9563944876515,
      "semi_major_axis_km": 6840.771315508105,
      "eccentricity": 0.0001475,
      "inclination_deg": 53.1621,
      "raan_deg": 58.5643,
      "arg_perigee_deg": 114.7374,
      "mean_anomaly_deg": 245.3782,
      "mean_motion_rev_day": 15.3442319
    },
    {
      "epoch": "2026-05-03T18:48:50.795136Z",
      "apogee_km": 463.8623712276567,
      "perigee_km": 461.48313759507164,
      "latitude_deg": 8.88587733902569e-06,
      "longitude_deg": -93.24588478845727,
      "height_km": 463.6909651033029,
      "semi_major_axis_km": 6840.809754411363,
      "eccentricity": 0.0001739,
      "inclination_deg": 53.162,
      "raan_deg": 50.6484,
      "arg_perigee_deg": 95.7375,
      "mean_anomaly_deg": 264.3826,
      "mean_motion_rev_day": 15.34410257
    },
    {
      "epoch": "2026-05-04T12:00:36.018432Z",
      "apogee_km": 463.4518012578601,
      "perigee_km": 461.95256294271167,
      "latitude_deg": -1.7701490437204146e-05,
      "longitude_deg": 4.759952238650781,
      "height_km": 463.51198036735246,
      "semi_major_axis_km": 6840.839182100286,
      "eccentricity": 0.00010958,
      "inclination_deg": 53.1632,
      "raan_deg": 47.2989,
      "arg_perigee_deg": 83.065,
      "mean_anomaly_deg": 277.0477,
      "mean_motion_rev_day": 15.34400356
    }
  ]
}